GLOBALSTAR M084         
1 38040U 11080A   24250.29879360 -.00000078  00000+0  14628-3 0  9991
2 38040  51.9992 192.7340 0000530  92.3463  72.5547 12.62266625586819
GLOBALSTAR M080         
1 38041U 11080B   24250.26879219 -.00000083  00000+0  11852-3 0  9994
2 38041  52.0047 194.3326 0000786  86.0313  62.4490 12.62264975586936
GLOBALSTAR M082         
1 38042U 11080C   24250.20675111 -.00000050  00000+0  29778-3 0  9994
2 38042  52.0069 149.9386 0000460   7.9181 158.5693 12.62265927587635
GLOBALSTAR M092         
1 38043U 11080D   24250.41735694 -.00000113  00000+0 -50281-4 0  9996
2 38043  52.0060 239.6586 0000265 102.2674  61.8927 12.62265586586114
GLOBALSTAR M090         
1 38044U 11080E   24249.97477524 -.00000054  00000+0  27756-3 0  9994
2 38044  51.9877 144.8193 0000540  38.8381  32.9246 12.62267011587721
GLOBALSTAR M086         
1 38045U 11080F   24250.17987688 -.00000057  00000+0  26135-3 0  9999
2 38045  51.9890 144.7226 0001556  54.7380 110.1803 12.62266492587693
GLOBALSTAR M097         
1 39072U 13005A   24250.48719940 -.00000106  00000+0 -12642-4 0  9992
2 39072  52.0051  58.0461 0000868  67.2458 292.8500 12.62270216534988
GLOBALSTAR M093         
1 39073U 13005B   24250.61862678 -.00000095  00000+0  49817-4 0  9995
2 39073  51.9821  51.3990 0000806  65.7663 294.3287 12.62263683534954
